O3B MPOWER F1           
1 54755U 22174A   23320.44575248 -.00000010  00000+0  00000+0 0  9991
2 54755   0.0536  18.7330 0005558 231.4922  85.6667  5.00118363 18149
